H1 CPF 01  gfz 2022 09 30 00  7731 tandemx   
H2 1003001  6202 36605    2022 09 30 00 59 42 2022 10 05 00 00 42   120 1 1  0 0 0
H9
10 0 59852  69822.000000  0    2854359.827   -192402.088  -6273744.948
10 0 59852  69942.000000  0    3589020.052   -558349.836  -5860779.743
10 0 59852  70062.000000  0    4254997.563   -926868.069  -5345427.113
10 0 59852  70182.000000  0    4840691.144  -1290245.149  -4736600.988
10 0 59852  70302.000000  0    5336000.826  -1640654.563  -4044860.970
10 0 59852  70422.000000  0    5732510.800  -1970318.929  -3282239.158
10 0 59852  70542.000000  0    6023643.400  -2271678.140  -2462038.326
10 0 59852  70662.000000  0    6204779.651  -2537558.035  -1598603.607
10 0 59852  70782.000000  0    6273342.661  -2761335.034   -707071.947
10 0 59852  70902.000000  0    6228841.997  -2937092.899    196896.283
10 0 59852  71022.000000  0    6072876.597  -3059767.458   1097398.405
10 0 59852  71142.000000  0    5809096.406  -3125275.334   1978578.056
10 0 59852  71262.000000  0    5443120.120  -3130622.855   2824914.141
10 0 59852  71382.000000  0    4982414.232  -3073992.578   3621502.164
10 0 59852  71502.000000  0    4436135.490  -2954803.872   4354322.547
10 0 59852  71622.000000  0    3814943.562  -2773748.774   5010490.263
10 0 59852  71742.000000  0    3130784.889  -2532801.679   5578483.370
10 0 59852  71862.000000  0    2396654.652  -2235200.921   6048342.393
10 0 59852  71982.000000  0    1626344.127  -1885405.023   6411840.180
10 0 59852  72102.000000  0     834177.326  -1489024.461   6662620.245
10 0 59852  72222.000000  0      34741.929  -1052729.839   6796301.848
10 0 59852  72342.000000  0    -757379.709   -584138.135   6810551.211
10 0 59852  72462.000000  0   -1527875.453    -91679.540   6705119.076
10 0 59852  72582.000000  0   -2262960.864    415553.875   6481844.852
10 0 59852  72702.000000  0   -2949625.221    927975.325   6144626.864
10 0 59852  72822.000000  0   -3575862.772   1435683.425   5699358.958
10 0 59852  72942.000000  0   -4130886.075   1928652.691   5153833.982
10 0 59852  73062.000000  0   -4605317.937   2396931.687   4517613.919
10 0 59852  73182.000000  0   -4991356.957   2830844.966   3801866.389
10 0 59852  73302.000000  0   -5282912.381   3221193.773   3019171.214
10 0 59852  73422.000000  0   -5475706.780   3559451.644   2183300.360
10 0 59852  73542.000000  0   -5567343.960   3837951.391   1308973.721
10 0 59852  73662.000000  0   -5557338.911   4050057.058    411593.442
10 0 59852  73782.000000  0   -5447107.995   4190316.125   -493035.041
10 0 59852  73902.000000  0   -5239921.740   4254589.176  -1388989.812
10 0 59852  74022.000000  0   -4940819.930   4240153.608  -2260522.559
10 0 59852  74142.000000  0   -4556489.744   4145776.746  -3092343.920
10 0 59852  74262.000000  0   -4095112.484   3971758.055  -3869896.234
10 0 59852  74382.000000  0   -3566183.272   3719940.024  -4579608.631
10 0 59852  74502.000000  0   -2980309.050   3393688.653  -5209129.794
10 0 59852  74622.000000  0   -2348991.677   2997844.473  -5747534.724
10 0 59852  74742.000000  0   -1684399.444   2538646.443  -6185505.752
10 0 59852  74862.000000  0    -999130.647   2023628.405  -6515482.837
10 0 59852  74982.000000  0    -305976.437   1461492.697  -6731781.800
10 0 59852  75102.000000  0     382313.791    861962.801  -6830682.005
10 0 59852  75222.000000  0    1053260.603    235617.820  -6810483.990
10 0 59852  75342.000000  0    1694876.533   -406290.593  -6671536.257
10 0 59852  75462.000000  0    2295874.884  -1052035.594  -6416228.399
10 0 59852  75582.000000  0    2845864.206  -1689623.693  -6048954.912
10 0 59852  75702.000000  0    3335526.128  -2307011.742  -5576047.490
10 0 59852  75822.000000  0    3756775.068  -2892331.327  -5005678.387
10 0 59852  75942.000000  0    4102896.160  -3434117.332  -4347729.300
10 0 59852  76062.000000  0    4368656.160  -3921532.849  -3613629.838
10 0 59852  76182.000000  0    4550388.694  -4344588.292  -2816168.939
10 0 59852  76302.000000  0    4646050.820  -4694350.331  -1969278.023
10 0 59852  76422.000000  0    4655248.142  -4963135.133  -1087789.899
10 0 59852  76542.000000  0    4579226.350  -5144680.897   -187176.540
10 0 59852  76662.000000  0    4420829.154  -5234293.364    716728.022
10 0 59852  76782.000000  0    4184424.300  -5228961.683   1608013.837
10 0 59852  76902.000000  0    3875797.443  -5127439.744   2470984.851
10 0 59852  77022.000000  0    3502017.481  -4930292.141   3290442.996
10 0 59852  77142.000000  0    3071277.564  -4639903.749   4051963.164
10 0 59852  77262.000000  0    2592715.179  -4260451.525   4742151.678
10 0 59852  77382.000000  0    2076216.713  -3797840.474   5348883.672
10 0 59852  77502.000000  0    1532210.877  -3259605.972   5861515.095
10 0 59852  77622.000000  0     971455.332  -2654783.755   6271065.974
10 0 59852  77742.000000  0     404822.143  -1993752.517   6570371.467
10 0 59852  77862.000000  0    -156913.662  -1288051.968   6754200.382
10 0 59852  77982.000000  0    -703277.967   -550179.396   6819341.848
10 0 59852  78102.000000  0   -1224291.792    206633.004   6764657.958
10 0 59852  78222.000000  0   -1710653.010    968655.153   6591102.210
10 0 59852  78342.000000  0   -2153902.049   1721907.418   6301703.770
10 0 59852  78462.000000  0   -2546569.707   2452416.261   5901517.915
10 0 59852  78582.000000  0   -2882304.223   3146473.986   5397543.279
10 0 59852  78702.000000  0   -3155976.661   3790898.100   4798606.045
10 0 59852  78822.000000  0   -3363762.419   4373286.028   4115211.309
10 0 59852  78942.000000  0   -3503196.284   4882259.997   3359363.018
10 0 59852  79062.000000  0   -3573199.813   5307696.630   2544354.476
10 0 59852  79182.000000  0   -3574080.100   5640934.888   1684532.578
10 0 59852  79302.000000  0   -3507499.649   5874956.715    795041.344
10 0 59852  79422.000000  0   -3376419.041   6004538.833   -108450.276
10 0 59852  79542.000000  0   -3185012.338   6026369.439  -1010033.820
10 0 59852  79662.000000  0   -2938557.794   5939125.149  -1893851.979
10 0 59852  79782.000000  0   -2643304.570   5743505.851  -2744387.626
10 0 59852  79902.000000  0   -2306321.072   5442228.279  -3546740.257
10 0 59852  80022.000000  0   -1935331.256   5039981.697  -4286889.071
10 0 59852  80142.000000  0   -1538540.698   4543343.513  -4951935.972
10 0 59852  80262.000000  0   -1124458.656   3960661.393  -5530323.549
10 0 59852  80382.000000  0    -701718.753   3301904.432  -6012028.264
10 0 59852  80502.000000  0    -278901.672   2578484.549  -6388724.694
10 0 59852  80622.000000  0     135635.517   1803053.593  -6653917.111
10 0 59852  80742.000000  0     533919.588    989281.845  -6803040.918
10 0 59852  80862.000000  0     908510.336    151619.386  -6833533.331
10 0 59852  80982.000000  0    1252636.011   -694955.999  -6744872.349
10 0 59852  81102.000000  0    1560312.146  -1535200.639  -6538583.165
10 0 59852  81222.000000  0    1826443.110  -2353871.631  -6218214.557
10 0 59852  81342.000000  0    2046906.006  -3135996.712  -5789285.459
10 0 59852  81462.000000  0    2218614.919  -3867145.793  -5259201.307
10 0 59852  81582.000000  0    2339564.562  -4533698.791  -4637136.053
10 0 59852  81702.000000  0    2408851.780  -5123101.151  -3933883.539
10 0 59852  81822.000000  0    2426674.873  -5624106.336  -3161680.974
10 0 59852  81942.000000  0    2394310.363  -6026999.861  -2334003.549
10 0 59852  82062.000000  0    2314067.533  -6323798.818  -1465333.499
10 0 59852  82182.000000  0    2189220.120  -6508421.628   -570906.466
10 0 59852  82302.000000  0    2023918.491  -6576820.654    333561.321
10 0 59852  82422.000000  0    1823081.329  -6527074.829   1232155.292
10 0 59852  82542.000000  0    1592273.053  -6359442.368   2109051.374
10 0 59852  82662.000000  0    1337566.356  -6076366.356   2948805.141
10 0 59852  82782.000000  0    1065395.679  -5682436.749   3736630.878
10 0 59852  82902.000000  0     782405.166  -5184309.783   4458667.308
10 0 59852  83022.000000  0     495294.789  -4590587.831   5102223.961
10 0 59852  83142.000000  0     210667.729  -3911661.515   5656004.953
10 0 59852  83262.000000  0     -65115.543  -3159517.416   6110304.759
10 0 59852  83382.000000  0    -326074.420  -2347517.231   6457172.352
10 0 59852  83502.000000  0    -566733.934  -1490155.566   6690543.026
10 0 59852  83622.000000  0    -782236.442   -602799.140   6806339.262
10 0 59852  83742.000000  0    -968437.796    298590.150   6802538.694
10 0 59852  83862.000000  0   -1121986.381   1197742.727   6679207.193
10 0 59852  83982.000000  0   -1240382.985   2078374.477   6438497.481
10 0 59852  84102.000000  0   -1322021.394   2924481.174   6084614.008
10 0 59852  84222.000000  0   -1366209.494   3720630.206   5623743.935
10 0 59852  84342.000000  0   -1373169.558   4452244.649   5063954.542
10 0 59852  84462.000000  0   -1344018.317   5105875.734   4415058.698
10 0 59852  84582.000000  0   -1280727.191   5669458.161   3688447.071
10 0 59852  84702.000000  0   -1186062.814   6132540.917   2896891.193
10 0 59852  84822.000000  0   -1063511.652   6486492.104   2054320.051
10 0 59852  84942.000000  0    -917185.334   6724669.762   1175570.562
10 0 59852  85062.000000  0    -751711.702   6842552.910    276120.490
10 0 59852  85182.000000  0    -572114.353   6837832.148   -628191.236
10 0 59852  85302.000000  0    -383683.270   6710456.265  -1521453.591
10 0 59852  85422.000000  0    -191840.494   6462630.045  -2387973.602
10 0 59852  85542.000000  0      -2005.015   6098766.551  -3212557.684
10 0 59852  85662.000000  0     180540.318   5625398.130  -3980780.803
10 0 59852  85782.000000  0     350777.469   5051047.251  -4679238.938
10 0 59852  85902.000000  0     504073.943   4386060.621  -5295779.400
10 0 59852  86022.000000  0     636292.844   3642411.635  -5819705.342
10 0 59852  86142.000000  0     743889.313   2833475.534  -6241951.960
10 0 59852  86262.000000  0     823991.925   1973782.857  -6555231.857
99
